[{"OBJECT_NAME":"JILIN-1 08","OBJECT_ID":"2018-008F","EPOCH":"2026-03-09T22:37:53.184288","MEAN_MOTION":15.32205976,"ECCENTRICITY":0.00081321,"INCLINATION":97.1902,"RA_OF_ASC_NODE":90.9961,"ARG_OF_PERICENTER":76.0646,"MEAN_ANOMALY":284.15,"EPHEMERIS_TYPE":0,"CLASSIFICATION_TYPE":"U","NORAD_CAT_ID":43160,"ELEMENT_SET_NO":999,"REV_AT_EPOCH":44974,"BSTAR":0.00036689195,"MEAN_MOTION_DOT":0.00011349,"MEAN_MOTION_DDOT":0},{"OBJECT_NAME":"STARLINK-35290","OBJECT_ID":"2025-221Z","EPOCH":"2026-03-09T10:04:00.016896","MEAN_MOTION":15.30207843,"ECCENTRICITY":0.00011631,"INCLINATION":53.1587,"RA_OF_ASC_NODE":89.4805,"ARG_OF_PERICENTER":94.7461,"MEAN_ANOMALY":265.3672,"EPHEMERIS_TYPE":0,"CLASSIFICATION_TYPE":"U","NORAD_CAT_ID":65846,"ELEMENT_SET_NO":999,"REV_AT_EPOCH":2469,"BSTAR":0.00081993679,"MEAN_MOTION_DOT":0.00024009,"MEAN_MOTION_DDOT":0}]
